CCSDS_OMM_VERS = 2.0
CREATION_DATE  = 
ORIGINATOR     = 

OBJECT_NAME    = PROGRESS-MS 32
OBJECT_ID      = 2025-204A
CENTER_NAME    = EARTH
REF_FRAME      = TEME
TIME_SYSTEM    = UTC
MEAN_ELEMENT_THEORY = SGP/SGP4

EPOCH          = 2025-11-12T22:26:21.947136
MEAN_MOTION    = 15.49593679
ECCENTRICITY   = .00041155
INCLINATION    = 51.6332
RA_OF_ASC_NODE = 290.0154
ARG_OF_PERICENTER = 64.1640
MEAN_ANOMALY   = 295.9773

EPHEMERIS_TYPE = 0
CLASSIFICATION_TYPE = U
NORAD_CAT_ID   = 65586
ELEMENT_SET_NO = 999
REV_AT_EPOCH   = 27
BSTAR          = .34559918E-3
MEAN_MOTION_DOT = .19039E-3
MEAN_MOTION_DDOT = 0

CCSDS_OMM_VERS = 2.0
CREATION_DATE  = 
ORIGINATOR     = 

OBJECT_NAME    = CYGNUS NG-23
OBJECT_ID      = 2025-208A
CENTER_NAME    = EARTH
REF_FRAME      = TEME
TIME_SYSTEM    = UTC
MEAN_ELEMENT_THEORY = SGP/SGP4

EPOCH          = 2025-11-12T22:26:21.947136
MEAN_MOTION    = 15.49593679
ECCENTRICITY   = .00041155
INCLINATION    = 51.6332
RA_OF_ASC_NODE = 290.0154
ARG_OF_PERICENTER = 64.1640
MEAN_ANOMALY   = 295.9773

EPHEMERIS_TYPE = 0
CLASSIFICATION_TYPE = U
NORAD_CAT_ID   = 65616
ELEMENT_SET_NO = 999
REV_AT_EPOCH   = 22
BSTAR          = .34559918E-3
MEAN_MOTION_DOT = .19039E-3
MEAN_MOTION_DDOT = 0

CCSDS_OMM_VERS = 2.0
CREATION_DATE  = 
ORIGINATOR     = 

OBJECT_NAME    = DRAGONFLY
OBJECT_ID      = 1998-067XH
CENTER_NAME    = EARTH
REF_FRAME      = TEME
TIME_SYSTEM    = UTC
MEAN_ELEMENT_THEORY = SGP/SGP4

EPOCH          = 2025-11-13T03:30:20.971584
MEAN_MOTION    = 15.62653356
ECCENTRICITY   = .0004741
INCLINATION    = 51.6293
RA_OF_ASC_NODE = 286.1780
ARG_OF_PERICENTER = 117.7600
MEAN_ANOMALY   = 242.3876

EPHEMERIS_TYPE = 0
CLASSIFICATION_TYPE = U
NORAD_CAT_ID   = 65729
ELEMENT_SET_NO = 999
REV_AT_EPOCH   = 852
BSTAR          = .18128E-2
MEAN_MOTION_DOT = .16857E-2
MEAN_MOTION_DDOT = 0

CCSDS_OMM_VERS = 2.0
CREATION_DATE  = 
ORIGINATOR     = 

OBJECT_NAME    = 1998-067XJ
OBJECT_ID      = 1998-067XJ
CENTER_NAME    = EARTH
REF_FRAME      = TEME
TIME_SYSTEM    = UTC
MEAN_ELEMENT_THEORY = SGP/SGP4

EPOCH          = 2025-11-13T02:26:34.306080
MEAN_MOTION    = 15.76481201
ECCENTRICITY   = .0011129
INCLINATION    = 51.6255
RA_OF_ASC_NODE = 284.3647
ARG_OF_PERICENTER = 106.9362
MEAN_ANOMALY   = 253.2859

EPHEMERIS_TYPE = 0
CLASSIFICATION_TYPE = U
NORAD_CAT_ID   = 65730
ELEMENT_SET_NO = 999
REV_AT_EPOCH   = 854
BSTAR          = .3102E-2
MEAN_MOTION_DOT = .536691E-2
MEAN_MOTION_DDOT = 0

CCSDS_OMM_VERS = 2.0
CREATION_DATE  = 
ORIGINATOR     = 

OBJECT_NAME    = 1998-067XK
OBJECT_ID      = 1998-067XK
CENTER_NAME    = EARTH
REF_FRAME      = TEME
TIME_SYSTEM    = UTC
MEAN_ELEMENT_THEORY = SGP/SGP4

EPOCH          = 2025-11-13T02:58:42.176064
MEAN_MOTION    = 15.59769742
ECCENTRICITY   = .0005628
INCLINATION    = 51.6324
RA_OF_ASC_NODE = 286.7834
ARG_OF_PERICENTER = 93.4194
MEAN_ANOMALY   = 266.7443

EPHEMERIS_TYPE = 0
CLASSIFICATION_TYPE = U
NORAD_CAT_ID   = 65731
ELEMENT_SET_NO = 999
REV_AT_EPOCH   = 851
BSTAR          = .12753E-2
MEAN_MOTION_DOT = .10511E-2
MEAN_MOTION_DDOT = 0

CCSDS_OMM_VERS = 2.0
CREATION_DATE  = 
ORIGINATOR     = 

OBJECT_NAME    = RSP-03
OBJECT_ID      = 1998-067XL
CENTER_NAME    = EARTH
REF_FRAME      = TEME
TIME_SYSTEM    = UTC
MEAN_ELEMENT_THEORY = SGP/SGP4

EPOCH          = 2025-11-13T04:01:25.525056
MEAN_MOTION    = 15.61173307
ECCENTRICITY   = .0006319
INCLINATION    = 51.6301
RA_OF_ASC_NODE = 286.3226
ARG_OF_PERICENTER = 96.7198
MEAN_ANOMALY   = 263.4515

EPHEMERIS_TYPE = 0
CLASSIFICATION_TYPE = U
NORAD_CAT_ID   = 65732
ELEMENT_SET_NO = 999
REV_AT_EPOCH   = 853
BSTAR          = .16145E-2
MEAN_MOTION_DOT = .141251E-2
MEAN_MOTION_DDOT = 0

CCSDS_OMM_VERS = 2.0
CREATION_DATE  = 
ORIGINATOR     = 

OBJECT_NAME    = GHS-01
OBJECT_ID      = 1998-067XM
CENTER_NAME    = EARTH
REF_FRAME      = TEME
TIME_SYSTEM    = UTC
MEAN_ELEMENT_THEORY = SGP/SGP4

EPOCH          = 2025-11-13T03:09:23.148288
MEAN_MOTION    = 15.63707009
ECCENTRICITY   = .0005272
INCLINATION    = 51.6307
RA_OF_ASC_NODE = 286.0826
ARG_OF_PERICENTER = 116.0346
MEAN_ANOMALY   = 244.1192

EPHEMERIS_TYPE = 0
CLASSIFICATION_TYPE = U
NORAD_CAT_ID   = 65733
ELEMENT_SET_NO = 999
REV_AT_EPOCH   = 853
BSTAR          = .19238E-2
MEAN_MOTION_DOT = .186914E-2
MEAN_MOTION_DDOT = 0

CCSDS_OMM_VERS = 2.0
CREATION_DATE  = 
ORIGINATOR     = 

OBJECT_NAME    = YOTSUBA-KULOVER
OBJECT_ID      = 1998-067XN
CENTER_NAME    = EARTH
REF_FRAME      = TEME
TIME_SYSTEM    = UTC
MEAN_ELEMENT_THEORY = SGP/SGP4

EPOCH          = 2025-11-12T22:24:41.905440
MEAN_MOTION    = 15.54889681
ECCENTRICITY   = .00026314
INCLINATION    = 51.6317
RA_OF_ASC_NODE = 289.2597
ARG_OF_PERICENTER = 50.7638
MEAN_ANOMALY   = 309.3586

EPHEMERIS_TYPE = 0
CLASSIFICATION_TYPE = U
NORAD_CAT_ID   = 65941
ELEMENT_SET_NO = 999
REV_AT_EPOCH   = 521
BSTAR          = .12827946E-2
MEAN_MOTION_DOT = .87807E-3
MEAN_MOTION_DDOT = 0

CCSDS_OMM_VERS = 2.0
CREATION_DATE  = 
ORIGINATOR     = 

OBJECT_NAME    = BOTAN
OBJECT_ID      = 1998-067XP
CENTER_NAME    = EARTH
REF_FRAME      = TEME
TIME_SYSTEM    = UTC
MEAN_ELEMENT_THEORY = SGP/SGP4

EPOCH          = 2025-11-12T08:12:17.549856
MEAN_MOTION    = 15.56096331
ECCENTRICITY   = .00047891
INCLINATION    = 51.6317
RA_OF_ASC_NODE = 292.0571
ARG_OF_PERICENTER = 62.0522
MEAN_ANOMALY   = 298.0954

EPHEMERIS_TYPE = 0
CLASSIFICATION_TYPE = U
NORAD_CAT_ID   = 65942
ELEMENT_SET_NO = 999
REV_AT_EPOCH   = 512
BSTAR          = .24082263E-2
MEAN_MOTION_DOT = .174749E-2
MEAN_MOTION_DDOT = 0

CCSDS_OMM_VERS = 2.0
CREATION_DATE  = 
ORIGINATOR     = 

OBJECT_NAME    = E-KAGAKU-1
OBJECT_ID      = 1998-067XQ
CENTER_NAME    = EARTH
REF_FRAME      = TEME
TIME_SYSTEM    = UTC
MEAN_ELEMENT_THEORY = SGP/SGP4

EPOCH          = 2025-11-12T22:24:04.622976
MEAN_MOTION    = 15.54883301
ECCENTRICITY   = .00044142
INCLINATION    = 51.6325
RA_OF_ASC_NODE = 289.2577
ARG_OF_PERICENTER = 48.7295
MEAN_ANOMALY   = 311.4076

EPHEMERIS_TYPE = 0
CLASSIFICATION_TYPE = U
NORAD_CAT_ID   = 65943
ELEMENT_SET_NO = 999
REV_AT_EPOCH   = 521
BSTAR          = .1276354E-2
MEAN_MOTION_DOT = .87357E-3
MEAN_MOTION_DDOT = 0

CCSDS_OMM_VERS = 2.0
CREATION_DATE  = 
ORIGINATOR     = 

OBJECT_NAME    = HRC MONOBLOCK CAMERA
OBJECT_ID      = 1998-067XR
CENTER_NAME    = EARTH
REF_FRAME      = TEME
TIME_SYSTEM    = UTC
MEAN_ELEMENT_THEORY = SGP/SGP4

EPOCH          = 2025-11-13T02:40:54.323904
MEAN_MOTION    = 15.51576189
ECCENTRICITY   = .0004802
INCLINATION    = 51.6317
RA_OF_ASC_NODE = 288.9450
ARG_OF_PERICENTER = 62.2782
MEAN_ANOMALY   = 297.8694

EPHEMERIS_TYPE = 0
CLASSIFICATION_TYPE = U
NORAD_CAT_ID   = 66052
ELEMENT_SET_NO = 999
REV_AT_EPOCH   = 423
BSTAR          = .77436E-3
MEAN_MOTION_DOT = .46568E-3
MEAN_MOTION_DDOT = 0

CCSDS_OMM_VERS = 2.0
CREATION_DATE  = 
ORIGINATOR     = 

OBJECT_NAME    = HTV-X1
OBJECT_ID      = 2025-241A
CENTER_NAME    = EARTH
REF_FRAME      = TEME
TIME_SYSTEM    = UTC
MEAN_ELEMENT_THEORY = SGP/SGP4

EPOCH          = 2025-11-12T22:26:21.947136
MEAN_MOTION    = 15.49593679
ECCENTRICITY   = .00041155
INCLINATION    = 51.6332
RA_OF_ASC_NODE = 290.0154
ARG_OF_PERICENTER = 64.1640
MEAN_ANOMALY   = 295.9773

EPHEMERIS_TYPE = 0
CLASSIFICATION_TYPE = U
NORAD_CAT_ID   = 66174
ELEMENT_SET_NO = 999
REV_AT_EPOCH   = 145
BSTAR          = .34559918E-3
MEAN_MOTION_DOT = .19039E-3
MEAN_MOTION_DDOT = 0

